CCSDS_OMM_VERS = 2.0
CREATION_DATE  = 
ORIGINATOR     = 

OBJECT_NAME    = PROGRESS-MS 32
OBJECT_ID      = 2025-204A
CENTER_NAME    = EARTH
REF_FRAME      = TEME
TIME_SYSTEM    = UTC
MEAN_ELEMENT_THEORY = SGP/SGP4

EPOCH          = 2025-11-24T20:48:53.618400
MEAN_MOTION    = 15.49056620
ECCENTRICITY   = .00038955
INCLINATION    = 51.6314
RA_OF_ASC_NODE = 230.9455
ARG_OF_PERICENTER = 164.8499
MEAN_ANOMALY   = 195.2607

EPHEMERIS_TYPE = 0
CLASSIFICATION_TYPE = U
NORAD_CAT_ID   = 65586
ELEMENT_SET_NO = 999
REV_AT_EPOCH   = 27
BSTAR          = .27142085E-3
MEAN_MOTION_DOT = .14562E-3
MEAN_MOTION_DDOT = 0

CCSDS_OMM_VERS = 2.0
CREATION_DATE  = 
ORIGINATOR     = 

OBJECT_NAME    = CYGNUS NG-23
OBJECT_ID      = 2025-208A
CENTER_NAME    = EARTH
REF_FRAME      = TEME
TIME_SYSTEM    = UTC
MEAN_ELEMENT_THEORY = SGP/SGP4

EPOCH          = 2025-11-24T20:48:53.618400
MEAN_MOTION    = 15.49056620
ECCENTRICITY   = .00038955
INCLINATION    = 51.6314
RA_OF_ASC_NODE = 230.9455
ARG_OF_PERICENTER = 164.8499
MEAN_ANOMALY   = 195.2607

EPHEMERIS_TYPE = 0
CLASSIFICATION_TYPE = U
NORAD_CAT_ID   = 65616
ELEMENT_SET_NO = 999
REV_AT_EPOCH   = 22
BSTAR          = .27142085E-3
MEAN_MOTION_DOT = .14562E-3
MEAN_MOTION_DDOT = 0

CCSDS_OMM_VERS = 2.0
CREATION_DATE  = 
ORIGINATOR     = 

OBJECT_NAME    = DRAGONFLY
OBJECT_ID      = 1998-067XH
CENTER_NAME    = EARTH
REF_FRAME      = TEME
TIME_SYSTEM    = UTC
MEAN_ELEMENT_THEORY = SGP/SGP4

EPOCH          = 2025-11-24T10:53:07.759392
MEAN_MOTION    = 15.65759999
ECCENTRICITY   = .00060938
INCLINATION    = 51.6268
RA_OF_ASC_NODE = 228.9341
ARG_OF_PERICENTER = 174.3850
MEAN_ANOMALY   = 185.7215

EPHEMERIS_TYPE = 0
CLASSIFICATION_TYPE = U
NORAD_CAT_ID   = 65729
ELEMENT_SET_NO = 999
REV_AT_EPOCH   = 1029
BSTAR          = .13042062E-2
MEAN_MOTION_DOT = .136505E-2
MEAN_MOTION_DDOT = 0

CCSDS_OMM_VERS = 2.0
CREATION_DATE  = 
ORIGINATOR     = 

OBJECT_NAME    = 1998-067XJ
OBJECT_ID      = 1998-067XJ
CENTER_NAME    = EARTH
REF_FRAME      = TEME
TIME_SYSTEM    = UTC
MEAN_ELEMENT_THEORY = SGP/SGP4

EPOCH          = 2025-11-24T02:05:36.927744
MEAN_MOTION    = 15.89933039
ECCENTRICITY   = .00124698
INCLINATION    = 51.6191
RA_OF_ASC_NODE = 227.1932
ARG_OF_PERICENTER = 176.8753
MEAN_ANOMALY   = 183.2333

EPHEMERIS_TYPE = 0
CLASSIFICATION_TYPE = U
NORAD_CAT_ID   = 65730
ELEMENT_SET_NO = 999
REV_AT_EPOCH   = 1028
BSTAR          = .26823627E-2
MEAN_MOTION_DOT = .821396E-2
MEAN_MOTION_DDOT = .2830898E-3

CCSDS_OMM_VERS = 2.0
CREATION_DATE  = 
ORIGINATOR     = 

OBJECT_NAME    = 1998-067XK
OBJECT_ID      = 1998-067XK
CENTER_NAME    = EARTH
REF_FRAME      = TEME
TIME_SYSTEM    = UTC
MEAN_ELEMENT_THEORY = SGP/SGP4

EPOCH          = 2025-11-24T10:56:48.568416
MEAN_MOTION    = 15.61893924
ECCENTRICITY   = .00060287
INCLINATION    = 51.6297
RA_OF_ASC_NODE = 229.7077
ARG_OF_PERICENTER = 149.3085
MEAN_ANOMALY   = 210.8262

EPHEMERIS_TYPE = 0
CLASSIFICATION_TYPE = U
NORAD_CAT_ID   = 65731
ELEMENT_SET_NO = 999
REV_AT_EPOCH   = 1028
BSTAR          = .1006891E-2
MEAN_MOTION_DOT = .89807E-3
MEAN_MOTION_DDOT = 0

CCSDS_OMM_VERS = 2.0
CREATION_DATE  = 
ORIGINATOR     = 

OBJECT_NAME    = RSP-03
OBJECT_ID      = 1998-067XL
CENTER_NAME    = EARTH
REF_FRAME      = TEME
TIME_SYSTEM    = UTC
MEAN_ELEMENT_THEORY = SGP/SGP4

EPOCH          = 2025-11-23T23:26:19.865184
MEAN_MOTION    = 15.63631631
ECCENTRICITY   = .00069398
INCLINATION    = 51.6285
RA_OF_ASC_NODE = 231.7507
ARG_OF_PERICENTER = 150.3605
MEAN_ANOMALY   = 209.7784

EPHEMERIS_TYPE = 0
CLASSIFICATION_TYPE = U
NORAD_CAT_ID   = 65732
ELEMENT_SET_NO = 999
REV_AT_EPOCH   = 1022
BSTAR          = .11333715E-2
MEAN_MOTION_DOT = .108568E-2
MEAN_MOTION_DDOT = 0

CCSDS_OMM_VERS = 2.0
CREATION_DATE  = 
ORIGINATOR     = 

OBJECT_NAME    = GHS-01
OBJECT_ID      = 1998-067XM
CENTER_NAME    = EARTH
REF_FRAME      = TEME
TIME_SYSTEM    = UTC
MEAN_ELEMENT_THEORY = SGP/SGP4

EPOCH          = 2025-11-24T10:18:47.176416
MEAN_MOTION    = 15.67279698
ECCENTRICITY   = .00065979
INCLINATION    = 51.6289
RA_OF_ASC_NODE = 228.7787
ARG_OF_PERICENTER = 172.5677
MEAN_ANOMALY   = 187.5418

EPHEMERIS_TYPE = 0
CLASSIFICATION_TYPE = U
NORAD_CAT_ID   = 65733
ELEMENT_SET_NO = 999
REV_AT_EPOCH   = 1030
BSTAR          = .13557677E-2
MEAN_MOTION_DOT = .15121E-2
MEAN_MOTION_DDOT = 0

CCSDS_OMM_VERS = 2.0
CREATION_DATE  = 
ORIGINATOR     = 

OBJECT_NAME    = YOTSUBA-KULOVER
OBJECT_ID      = 1998-067XN
CENTER_NAME    = EARTH
REF_FRAME      = TEME
TIME_SYSTEM    = UTC
MEAN_ELEMENT_THEORY = SGP/SGP4

EPOCH          = 2025-11-24T19:35:53.813184
MEAN_MOTION    = 15.56652021
ECCENTRICITY   = .00023811
INCLINATION    = 51.6301
RA_OF_ASC_NODE = 229.8604
ARG_OF_PERICENTER = 123.8915
MEAN_ANOMALY   = 236.2304

EPHEMERIS_TYPE = 0
CLASSIFICATION_TYPE = U
NORAD_CAT_ID   = 65941
ELEMENT_SET_NO = 999
REV_AT_EPOCH   = 706
BSTAR          = .93112024E-3
MEAN_MOTION_DOT = .6773E-3
MEAN_MOTION_DDOT = 0

CCSDS_OMM_VERS = 2.0
CREATION_DATE  = 
ORIGINATOR     = 

OBJECT_NAME    = BOTAN
OBJECT_ID      = 1998-067XP
CENTER_NAME    = EARTH
REF_FRAME      = TEME
TIME_SYSTEM    = UTC
MEAN_ELEMENT_THEORY = SGP/SGP4

EPOCH          = 2025-11-24T03:32:58.039872
MEAN_MOTION    = 15.58627558
ECCENTRICITY   = .00046795
INCLINATION    = 51.6299
RA_OF_ASC_NODE = 232.8955
ARG_OF_PERICENTER = 127.4021
MEAN_ANOMALY   = 232.7398

EPHEMERIS_TYPE = 0
CLASSIFICATION_TYPE = U
NORAD_CAT_ID   = 65942
ELEMENT_SET_NO = 999
REV_AT_EPOCH   = 696
BSTAR          = .1189409E-2
MEAN_MOTION_DOT = .93675E-3
MEAN_MOTION_DDOT = 0

CCSDS_OMM_VERS = 2.0
CREATION_DATE  = 
ORIGINATOR     = 

OBJECT_NAME    = E-KAGAKU-1
OBJECT_ID      = 1998-067XQ
CENTER_NAME    = EARTH
REF_FRAME      = TEME
TIME_SYSTEM    = UTC
MEAN_ELEMENT_THEORY = SGP/SGP4

EPOCH          = 2025-11-24T02:38:31.699104
MEAN_MOTION    = 15.56534429
ECCENTRICITY   = .00040044
INCLINATION    = 51.6308
RA_OF_ASC_NODE = 233.3942
ARG_OF_PERICENTER = 108.5710
MEAN_ANOMALY   = 251.5717

EPHEMERIS_TYPE = 0
CLASSIFICATION_TYPE = U
NORAD_CAT_ID   = 65943
ELEMENT_SET_NO = 999
REV_AT_EPOCH   = 695
BSTAR          = .88691505E-3
MEAN_MOTION_DOT = .64191E-3
MEAN_MOTION_DDOT = 0

CCSDS_OMM_VERS = 2.0
CREATION_DATE  = 
ORIGINATOR     = 

OBJECT_NAME    = HRC MONOBLOCK CAMERA
OBJECT_ID      = 1998-067XR
CENTER_NAME    = EARTH
REF_FRAME      = TEME
TIME_SYSTEM    = UTC
MEAN_ELEMENT_THEORY = SGP/SGP4

EPOCH          = 2025-11-24T21:27:49.997952
MEAN_MOTION    = 15.52570261
ECCENTRICITY   = .00047157
INCLINATION    = 51.6297
RA_OF_ASC_NODE = 230.3759
ARG_OF_PERICENTER = 113.5729
MEAN_ANOMALY   = 246.5757

EPHEMERIS_TYPE = 0
CLASSIFICATION_TYPE = U
NORAD_CAT_ID   = 66052
ELEMENT_SET_NO = 999
REV_AT_EPOCH   = 606
BSTAR          = .6166968E-3
MEAN_MOTION_DOT = .38308E-3
MEAN_MOTION_DDOT = 0

CCSDS_OMM_VERS = 2.0
CREATION_DATE  = 
ORIGINATOR     = 

OBJECT_NAME    = HTV-X1
OBJECT_ID      = 2025-241A
CENTER_NAME    = EARTH
REF_FRAME      = TEME
TIME_SYSTEM    = UTC
MEAN_ELEMENT_THEORY = SGP/SGP4

EPOCH          = 2025-11-24T20:48:53.618400
MEAN_MOTION    = 15.49056620
ECCENTRICITY   = .00038955
INCLINATION    = 51.6314
RA_OF_ASC_NODE = 230.9455
ARG_OF_PERICENTER = 164.8499
MEAN_ANOMALY   = 195.2607

EPHEMERIS_TYPE = 0
CLASSIFICATION_TYPE = U
NORAD_CAT_ID   = 66174
ELEMENT_SET_NO = 999
REV_AT_EPOCH   = 145
BSTAR          = .27142085E-3
MEAN_MOTION_DOT = .14562E-3
MEAN_MOTION_DDOT = 0

